TRANSPORTER-10 OBJECT AD
1 59125U 24043AD  26068.86032889  .00011954  00000+0  36311-3 0  9997
2 59125  97.5470 207.3753 0008984 221.4908 138.5653 15.34189901112026
STARLINK-32323          
1 61677U 24193S   26068.44953479 -.00000663  00000+0 -10276-4 0  9999
2 61677  53.1607  91.8512 0001317  86.6888 273.4263 15.30186425 76491
